[{"OBJECT_NAME":"STARLINK-3572","OBJECT_ID":"2022-022AD","EPOCH":"2026-03-09T23:30:41.974272","MEAN_MOTION":15.08824831,"ECCENTRICITY":0.00015475,"INCLINATION":53.2199,"RA_OF_ASC_NODE":357.8184,"ARG_OF_PERICENTER":90.5222,"MEAN_ANOMALY":269.5948,"EPHEMERIS_TYPE":0,"CLASSIFICATION_TYPE":"U","NORAD_CAT_ID":51879,"ELEMENT_SET_NO":999,"REV_AT_EPOCH":22329,"BSTAR":0.00011589753,"MEAN_MOTION_DOT":1.556e-5,"MEAN_MOTION_DDOT":0},{"OBJECT_NAME":"DELTA 1 DEB","OBJECT_ID":"1977-065GH","EPOCH":"2026-03-09T01:33:10.257120","MEAN_MOTION":14.31068962,"ECCENTRICITY":0.03714501,"INCLINATION":28.6431,"RA_OF_ASC_NODE":356.7801,"ARG_OF_PERICENTER":189.8856,"MEAN_ANOMALY":169.4241,"EPHEMERIS_TYPE":0,"CLASSIFICATION_TYPE":"U","NORAD_CAT_ID":27729,"ELEMENT_SET_NO":999,"REV_AT_EPOCH":68774,"BSTAR":0.0010478999,"MEAN_MOTION_DOT":6.203e-5,"MEAN_MOTION_DDOT":0}]
